ONEWEB-0631             
1 55171U 23004AH  26127.12818450  .00000025  00000+0  30140-4 0  9993
2 55171  87.9187 343.6049 0001311  90.9291 269.1991 13.18685237164266
ONEWEB-0709             
1 55172U 23004AJ  26127.23297802 -.00000026  00000+0 -10802-3 0  9993
2 55172  87.8919  29.2247 0001328  51.5979 308.5268 13.11419105160500
ONEWEB-0710             
1 55173U 23004AK  26127.19825019  .00000105  00000+0  23619-3 0  9992
2 55173  87.9170  14.0137 0001762  86.9415 273.1919 13.17649755162188
ONEWEB-0711             
1 55174U 23004AL  26127.28044174 -.00000212  00000+0 -63457-3 0  9993
2 55174  87.8918  29.2015 0001821 102.7868 257.3464 13.11413294160476
ONEWEB-0713             
1 55175U 23004AM  26127.22278980 -.00000396  00000+0 -11518-2 0  9995
2 55175  87.8928  29.2136 0001759  92.4136 267.7193 13.11420125160458
ONEWEB-0715             
1 55176U 23004AN  26127.21770182 -.00000451  00000+0 -13096-2 0  9991
2 55176  87.8931  29.2147 0001132  69.8435 290.2815 13.11419018160495
ONEWEB-0716             
1 55177U 23004AP  26127.19150015  .00000092  00000+0  20472-3 0  9992
2 55177  87.9174  14.0166 0001994  76.8182 283.3172 13.17649315162180
ONEWEB-0717             
1 55178U 23004AQ  26127.17462803  .00000003  00000+0 -26329-4 0  9993
2 55178  87.9184  14.0036 0001645 104.6168 255.5146 13.17649615162236
ONEWEB-0719             
1 55179U 23004AR  26127.18475042 -.00000006  00000+0 -47375-4 0  9992
2 55179  87.9179  13.9832 0002025  80.8170 279.3191 13.17649897162184
ONEWEB-0530             
1 55796U 23029A   26127.18174461  .00001418  00000+0  34537-2 0  9995
2 55796  87.9135 282.6528 0002192 108.3659 251.7713 13.20793907155734
ONEWEB-0534             
1 55797U 23029B   26126.94189166 -.00000294  00000+0 -75502-3 0  9998
2 55797  87.9130 282.6997 0001840  90.2387 269.8958 13.20766236155709
ONEWEB-0556             
1 55798U 23029C   26126.94824375 -.00002794  00000+0 -69087-2 0  9994
2 55798  87.9142 282.7002 0002584  87.9084 272.2346 13.20748269155709
ONEWEB-0562             
1 55799U 23029D   26126.93557354  .00000041  00000+0  67742-4 0  9993
2 55799  87.9143 282.6831 0002593 108.0724 252.0691 13.20770618155708
ONEWEB-0563             
1 55800U 23029E   26127.23237445 -.00007353  00000+0 -18147-1 0  9993
2 55800  87.9137 282.6538 0001697 138.8163 221.3098 13.20707407155739
ONEWEB-0564             
1 55801U 23029F   26127.15029091 -.00005907  00000+0 -14580-1 0  9991
2 55801  87.9145 282.6437 0002370 102.9246 257.2152 13.20716128155739
ONEWEB-0638             
1 55802U 23029G   26127.21334820 -.00000034  00000+0 -12631-3 0  9991
2 55802  87.8917 297.9314 0002379  94.6030 265.5371 13.14503542154018
