[{"OBJECT_NAME":"ONEWEB-0631","OBJECT_ID":"2023-004AH","EPOCH":"2026-05-07T03:04:35.140800","MEAN_MOTION":13.18685237,"ECCENTRICITY":0.0001311,"INCLINATION":87.9187,"RA_OF_ASC_NODE":343.6049,"ARG_OF_PERICENTER":90.9291,"MEAN_ANOMALY":269.1991,"EPHEMERIS_TYPE":0,"CLASSIFICATION_TYPE":"U","NORAD_CAT_ID":55171,"ELEMENT_SET_NO":999,"REV_AT_EPOCH":16426,"BSTAR":3.0140000000000003e-05,"MEAN_MOTION_DOT":2.5e-07,"MEAN_MOTION_DDOT":0.0},{"OBJECT_NAME":"ONEWEB-0709","OBJECT_ID":"2023-004AJ","EPOCH":"2026-05-07T05:35:29.300928","MEAN_MOTION":13.11419105,"ECCENTRICITY":0.0001328,"INCLINATION":87.8919,"RA_OF_ASC_NODE":29.2247,"ARG_OF_PERICENTER":51.5979,"MEAN_ANOMALY":308.5268,"EPHEMERIS_TYPE":0,"CLASSIFICATION_TYPE":"U","NORAD_CAT_ID":55172,"ELEMENT_SET_NO":999,"REV_AT_EPOCH":16050,"BSTAR":-0.00010802000000000001,"MEAN_MOTION_DOT":-2.6e-07,"MEAN_MOTION_DDOT":0.0},{"OBJECT_NAME":"ONEWEB-0710","OBJECT_ID":"2023-004AK","EPOCH":"2026-05-07T04:45:28.816416","MEAN_MOTION":13.17649755,"ECCENTRICITY":0.0001762,"INCLINATION":87.917,"RA_OF_ASC_NODE":14.0137,"ARG_OF_PERICENTER":86.9415,"MEAN_ANOMALY":273.1919,"EPHEMERIS_TYPE":0,"CLASSIFICATION_TYPE":"U","NORAD_CAT_ID":55173,"ELEMENT_SET_NO":999,"REV_AT_EPOCH":16218,"BSTAR":0.00023619000000000003,"MEAN_MOTION_DOT":1.05e-06,"MEAN_MOTION_DDOT":0.0},{"OBJECT_NAME":"ONEWEB-0711","OBJECT_ID":"2023-004AL","EPOCH":"2026-05-07T06:43:50.166336","MEAN_MOTION":13.11413294,"ECCENTRICITY":0.0001821,"INCLINATION":87.8918,"RA_OF_ASC_NODE":29.2015,"ARG_OF_PERICENTER":102.7868,"MEAN_ANOMALY":257.3464,"EPHEMERIS_TYPE":0,"CLASSIFICATION_TYPE":"U","NORAD_CAT_ID":55174,"ELEMENT_SET_NO":999,"REV_AT_EPOCH":16047,"BSTAR":-0.00063457,"MEAN_MOTION_DOT":-2.12e-06,"MEAN_MOTION_DDOT":0.0},{"OBJECT_NAME":"ONEWEB-0713","OBJECT_ID":"2023-004AM","EPOCH":"2026-05-07T05:20:49.038720","MEAN_MOTION":13.11420125,"ECCENTRICITY":0.0001759,"INCLINATION":87.8928,"RA_OF_ASC_NODE":29.2136,"ARG_OF_PERICENTER":92.4136,"MEAN_ANOMALY":267.7193,"EPHEMERIS_TYPE":0,"CLASSIFICATION_TYPE":"U","NORAD_CAT_ID":55175,"ELEMENT_SET_NO":999,"REV_AT_EPOCH":16045,"BSTAR":-0.0011518000000000001,"MEAN_MOTION_DOT":-3.96e-06,"MEAN_MOTION_DDOT":0.0},{"OBJECT_NAME":"ONEWEB-0715","OBJECT_ID":"2023-004AN","EPOCH":"2026-05-07T05:13:29.437248","MEAN_MOTION":13.11419018,"ECCENTRICITY":0.0001132,"INCLINATION":87.8931,"RA_OF_ASC_NODE":29.2147,"ARG_OF_PERICENTER":69.8435,"MEAN_ANOMALY":290.2815,"EPHEMERIS_TYPE":0,"CLASSIFICATION_TYPE":"U","NORAD_CAT_ID":55176,"ELEMENT_SET_NO":999,"REV_AT_EPOCH":16049,"BSTAR":-0.0013096,"MEAN_MOTION_DOT":-4.51e-06,"MEAN_MOTION_DDOT":0.0},{"OBJECT_NAME":"ONEWEB-0716","OBJECT_ID":"2023-004AP","EPOCH":"2026-05-07T04:35:45.612960","MEAN_MOTION":13.17649315,"ECCENTRICITY":0.0001994,"INCLINATION":87.9174,"RA_OF_ASC_NODE":14.0166,"ARG_OF_PERICENTER":76.8182,"MEAN_ANOMALY":283.3172,"EPHEMERIS_TYPE":0,"CLASSIFICATION_TYPE":"U","NORAD_CAT_ID":55177,"ELEMENT_SET_NO":999,"REV_AT_EPOCH":16218,"BSTAR":0.00020472,"MEAN_MOTION_DOT":9.2e-07,"MEAN_MOTION_DDOT":0.0},{"OBJECT_NAME":"ONEWEB-0717","OBJECT_ID":"2023-004AQ","EPOCH":"2026-05-07T04:11:27.861792","MEAN_MOTION":13.17649615,"ECCENTRICITY":0.0001645,"INCLINATION":87.9184,"RA_OF_ASC_NODE":14.0036,"ARG_OF_PERICENTER":104.6168,"MEAN_ANOMALY":255.5146,"EPHEMERIS_TYPE":0,"CLASSIFICATION_TYPE":"U","NORAD_CAT_ID":55178,"ELEMENT_SET_NO":999,"REV_AT_EPOCH":16223,"BSTAR":-2.6329000000000005e-05,"MEAN_MOTION_DOT":3e-08,"MEAN_MOTION_DDOT":0.0},{"OBJECT_NAME":"ONEWEB-0719","OBJECT_ID":"2023-004AR","EPOCH":"2026-05-07T04:26:02.436288","MEAN_MOTION":13.17649897,"ECCENTRICITY":0.0002025,"INCLINATION":87.9179,"RA_OF_ASC_NODE":13.9832,"ARG_OF_PERICENTER":80.817,"MEAN_ANOMALY":279.3191,"EPHEMERIS_TYPE":0,"CLASSIFICATION_TYPE":"U","NORAD_CAT_ID":55179,"ELEMENT_SET_NO":999,"REV_AT_EPOCH":16218,"BSTAR":-4.7375e-05,"MEAN_MOTION_DOT":-6e-08,"MEAN_MOTION_DDOT":0.0},{"OBJECT_NAME":"ONEWEB-0530","OBJECT_ID":"2023-029A","EPOCH":"2026-05-07T04:21:42.734304","MEAN_MOTION":13.20793907,"ECCENTRICITY":0.0002192,"INCLINATION":87.9135,"RA_OF_ASC_NODE":282.6528,"ARG_OF_PERICENTER":108.3659,"MEAN_ANOMALY":251.7713,"EPHEMERIS_TYPE":0,"CLASSIFICATION_TYPE":"U","NORAD_CAT_ID":55796,"ELEMENT_SET_NO":999,"REV_AT_EPOCH":15573,"BSTAR":0.0034537,"MEAN_MOTION_DOT":1.418e-05,"MEAN_MOTION_DDOT":0.0},{"OBJECT_NAME":"ONEWEB-0534","OBJECT_ID":"2023-029B","EPOCH":"2026-05-06T22:36:19.439424","MEAN_MOTION":13.20766236,"ECCENTRICITY":0.000184,"INCLINATION":87.913,"RA_OF_ASC_NODE":282.6997,"ARG_OF_PERICENTER":90.2387,"MEAN_ANOMALY":269.8958,"EPHEMERIS_TYPE":0,"CLASSIFICATION_TYPE":"U","NORAD_CAT_ID":55797,"ELEMENT_SET_NO":999,"REV_AT_EPOCH":15570,"BSTAR":-0.00075502,"MEAN_MOTION_DOT":-2.94e-06,"MEAN_MOTION_DDOT":0.0},{"OBJECT_NAME":"ONEWEB-0556","OBJECT_ID":"2023-029C","EPOCH":"2026-05-06T22:45:28.260000","MEAN_MOTION":13.20748269,"ECCENTRICITY":0.0002584,"INCLINATION":87.9142,"RA_OF_ASC_NODE":282.7002,"ARG_OF_PERICENTER":87.9084,"MEAN_ANOMALY":272.2346,"EPHEMERIS_TYPE":0,"CLASSIFICATION_TYPE":"U","NORAD_CAT_ID":55798,"ELEMENT_SET_NO":999,"REV_AT_EPOCH":15570,"BSTAR":-0.0069087,"MEAN_MOTION_DOT":-2.794e-05,"MEAN_MOTION_DDOT":0.0},{"OBJECT_NAME":"ONEWEB-0562","OBJECT_ID":"2023-029D","EPOCH":"2026-05-06T22:27:13.553856","MEAN_MOTION":13.20770618,"ECCENTRICITY":0.0002593,"INCLINATION":87.9143,"RA_OF_ASC_NODE":282.6831,"ARG_OF_PERICENTER":108.0724,"MEAN_ANOMALY":252.0691,"EPHEMERIS_TYPE":0,"CLASSIFICATION_TYPE":"U","NORAD_CAT_ID":55799,"ELEMENT_SET_NO":999,"REV_AT_EPOCH":15570,"BSTAR":6.7742e-05,"MEAN_MOTION_DOT":4.1e-07,"MEAN_MOTION_DDOT":0.0},{"OBJECT_NAME":"ONEWEB-0563","OBJECT_ID":"2023-029E","EPOCH":"2026-05-07T05:34:37.152480","MEAN_MOTION":13.20707407,"ECCENTRICITY":0.0001697,"INCLINATION":87.9137,"RA_OF_ASC_NODE":282.6538,"ARG_OF_PERICENTER":138.8163,"MEAN_ANOMALY":221.3098,"EPHEMERIS_TYPE":0,"CLASSIFICATION_TYPE":"U","NORAD_CAT_ID":55800,"ELEMENT_SET_NO":999,"REV_AT_EPOCH":15573,"BSTAR":-0.018147,"MEAN_MOTION_DOT":-7.353e-05,"MEAN_MOTION_DDOT":0.0},{"OBJECT_NAME":"ONEWEB-0564","OBJECT_ID":"2023-029F","EPOCH":"2026-05-07T03:36:25.134624","MEAN_MOTION":13.20716128,"ECCENTRICITY":0.000237,"INCLINATION":87.9145,"RA_OF_ASC_NODE":282.6437,"ARG_OF_PERICENTER":102.9246,"MEAN_ANOMALY":257.2152,"EPHEMERIS_TYPE":0,"CLASSIFICATION_TYPE":"U","NORAD_CAT_ID":55801,"ELEMENT_SET_NO":999,"REV_AT_EPOCH":15573,"BSTAR":-0.014580000000000003,"MEAN_MOTION_DOT":-5.907e-05,"MEAN_MOTION_DDOT":0.0},{"OBJECT_NAME":"ONEWEB-0638","OBJECT_ID":"2023-029G","EPOCH":"2026-05-07T05:07:13.284480","MEAN_MOTION":13.14503542,"ECCENTRICITY":0.0002379,"INCLINATION":87.8917,"RA_OF_ASC_NODE":297.9314,"ARG_OF_PERICENTER":94.603,"MEAN_ANOMALY":265.5371,"EPHEMERIS_TYPE":0,"CLASSIFICATION_TYPE":"U","NORAD_CAT_ID":55802,"ELEMENT_SET_NO":999,"REV_AT_EPOCH":15401,"BSTAR":-0.00012631,"MEAN_MOTION_DOT":-3.4e-07,"MEAN_MOTION_DDOT":0.0}]